NORAD_CAT_ID,OBJECT_NAME,OBJECT_TYPE,EPOCH,MEAN_MOTION,ECCENTRICITY,INCLINATION,RA_OF_ASC_NODE,ARG_OF_PERICENTER,MEAN_ANOMALY,BSTAR,MEAN_MOTION_DOT,MEAN_MOTION_DDOT,TLE_LINE0,TLE_LINE1,TLE_LINE2,SEMIMAJOR_AXIS,PERIOD,APOGEE,PERIGEE,DECAYED
54168.0,STARLINK-5245,PAYLOAD,2022-12-06 22:00:00,15.6869925,0.0003966,53.2167,306.6095,263.0727,321.0422,-0.010199,-0.01064705,0.0,0 STARLINK-5245,1 54168U 22141M   22340.91667824 -.01064705  00000-0 -10199-1 0  9994,2 54168  53.2167 306.6095 0003966 263.0727 321.0422 15.68699250  1309,6740.7580000000025,91.796,365.296,359.949,0.0
54168.0,STARLINK-5245,PAYLOAD,2022-12-07 00:00:02,15.68526093,0.0003202,53.217,306.1993,261.7945,73.2296,-0.01066,-0.01100249,0.0,0 STARLINK-5245,1 54168U 22141M   22341.00002315 -.01100249  00000-0 -10660-1 0  9990,2 54168  53.2170 306.1993 0003202 261.7945  73.2296 15.68526093  6321,6741.254,91.806,365.277,360.96,0.0
54168.0,STARLINK-5245,PAYLOAD,2022-12-07 14:00:01,15.66861367,0.0002984,53.217,303.3353,264.6962,124.6826,-0.0077357,-0.00761738,0.0,0 STARLINK-5245,1 54168U 22141M   22341.58334491 -.00761738  00000-0 -77357-2 0  9998,2 54168  53.2170 303.3353 0002984 264.6962 124.6826 15.66861367  6411,6746.028,91.903,369.906,365.88,0.0
54168.0,STARLINK-5245,PAYLOAD,2022-12-07 22:00:00,15.65647572,0.0004878,53.2166,301.6996,268.4667,202.2444,-0.0022098,-0.00221575,0.0,0 STARLINK-5245,1 54168U 22141M   22341.91667824 -.00221575  00000-0 -22098-2 0  9996,2 54168  53.2166 301.6996 0004878 268.4667 202.2444 15.65647572  6461,6749.514,91.975,374.671,368.087,0.0
54168.0,STARLINK-5245,PAYLOAD,2022-12-08 06:00:00,15.65490231,0.0002565,53.2177,300.0708,272.4638,278.0481,-0.012415,-0.01146658,0.0,0 STARLINK-5245,1 54168U 22141M   22342.25001157 -.01146658  00000-0 -12415-1 0  9995,2 54168  53.2177 300.0708 0002565 272.4638 278.0481 15.65490231  6517,6749.965999999999,91.984,373.56300000000016,370.1,0.0
54168.0,STARLINK-5245,PAYLOAD,2022-12-08 14:00:01,15.64677289,0.0001031,53.2173,298.4402,78.6024,191.0683,-0.012808,-0.01144497,0.0,0 STARLINK-5245,1 54168U 22141M   22342.58334491 -.01144497  00000-0 -12808-1 0  9996,2 54168  53.2173 298.4402 0001031  78.6024 191.0683 15.64677289  1305,6752.304,92.032,374.865,373.473,0.0
54168.0,STARLINK-5245,PAYLOAD,2022-12-08 22:00:01,15.6385786,0.0001032,53.2176,296.8113,80.4914,267.4295,-0.013119,-0.01135491,0.0,0 STARLINK-5245,1 54168U 22141M   22342.91668981 -.01135491  00000-0 -13119-1 0  9997,2 54168  53.2176 296.8113 0001032  80.4914 267.4295 15.63857860  1300,6754.663000000001,92.08,377.225,375.83,0.0
54168.0,STARLINK-5245,PAYLOAD,2022-12-09 06:00:02,15.63041248,0.0001052,53.2172,295.1888,85.1159,340.0083,-0.013498,-0.01131499,0.0,0 STARLINK-5245,1 54168U 22141M   22343.25002315 -.01131499  00000-0 -13498-1 0  9992,2 54168  53.2172 295.1888 0001052  85.1159 340.0083 15.63041248  6675,6757.015,92.128,379.591,378.169,0.0
54168.0,STARLINK-5245,PAYLOAD,2022-12-09 14:00:01,15.62232214,0.000122,53.2171,293.563,79.4012,61.8835,-0.014027,-0.01138327,0.0,0 STARLINK-5245,1 54168U 22141M   22343.58334491 -.01138327  00000-0 -14027-1 0  9997,2 54168  53.2171 293.5630 0001220  79.4012  61.8835 15.62232214  1304,6759.348000000001,92.176,382.037,380.388,0.0
54168.0,STARLINK-5245,PAYLOAD,2022-12-09 22:00:00,15.61419499,0.0001208,53.2168,291.9407,85.5391,130.9925,-0.0144699999999999,-0.01137606,0.0,0 STARLINK-5245,1 54168U 22141M   22343.91667824 -.01137606  00000-0 -14470-1 0  9994,2 54168  53.2168 291.9407 0001208  85.5391 130.9925 15.61419499  6773,6761.693,92.224,384.375,382.741,0.0
54168.0,STARLINK-5245,PAYLOAD,2022-12-10 14:00:01,15.59789215,0.0001005,53.2176,288.7024,75.6831,288.414,-0.015375,-0.01134999,0.0,0 STARLINK-5245,1 54168U 22141M   22344.58334491 -.01134999  00000-0 -15375-1 0  9996,2 54168  53.2176 288.7024 0001005  75.6831 288.4140 15.59789215  6888,6766.404,92.32,388.949,387.589,0.0
54168.0,STARLINK-5245,PAYLOAD,2022-12-10 22:00:00,15.58974804,0.0001117,53.2178,287.0863,75.8412,0.5710000000000001,-0.015836,-0.01133304,0.0,0 STARLINK-5245,1 54168U 22141M   22344.91667824 -.01133304  00000-0 -15836-1 0  9993,2 54168  53.2178 287.0863 0001117  75.8412   0.5710 15.58974804  1301,6768.76,92.368,391.381,389.869,0.0
54168.0,STARLINK-5245,PAYLOAD,2022-12-11 14:00:01,15.57348003,0.0001259,53.2176,283.8604,71.441,146.6667,-0.016854,-0.01133889,0.0,0 STARLINK-5245,1 54168U 22141M   22345.58334491 -.01133889  00000-0 -16854-1 0  9997,2 54168  53.2176 283.8604 0001259  71.4410 146.6667 15.57348003  7037,6773.473000000001,92.465,396.191,394.485,0.0
54168.0,STARLINK-5245,PAYLOAD,2022-12-11 22:00:01,15.56533681,0.0001183,53.2176,282.2504,104.2717,183.2821,-0.017355,-0.01132497,0.0,0 STARLINK-5245,1 54168U 22141M   22345.91668981 -.01132497  00000-0 -17355-1 0  9999,2 54168  53.2176 282.2504 0001183 104.2717 183.2821 15.56533681  1300,6775.835,92.513,398.502,396.898,0.0
54168.0,STARLINK-5245,PAYLOAD,2022-12-12 06:00:00,15.5571814,0.0001022,53.2174,280.6441,90.0321,265.8596,-0.017843,-0.01129637,0.0,0 STARLINK-5245,1 54168U 22141M   22346.25001157 -.01129637  00000-0 -17843-1 0  9997,2 54168  53.2174 280.6441 0001022  90.0321 265.8596 15.55718140  7143,6778.203,92.562,400.761,399.375,0.0
54168.0,STARLINK-5245,PAYLOAD,2022-12-12 14:00:01,15.54904593,0.0001072,53.2175,279.0362,72.4494,350.869,-0.018394,-0.01129859,0.0,0 STARLINK-5245,1 54168U 22141M   22346.58334491 -.01129859  00000-0 -18394-1 0  9991,2 54168  53.2175 279.0362 0001072  72.4494 350.8690 15.54904593  1308,6780.566999999999,92.61,403.159,401.705,0.0
54168.0,STARLINK-5245,PAYLOAD,2022-12-12 22:00:00,15.54103848,0.0001193,53.2168,277.4329,87.8241,41.935,-0.019265,-0.01147085,0.0,0 STARLINK-5245,1 54168U 22141M   22346.91667824 -.01147085  00000-0 -19265-1 0  9996,2 54168  53.2168 277.4329 0001193  87.8241  41.9350 15.54103848  7243,6782.896,92.658,405.57,403.952,0.0
54168.0,STARLINK-5245,PAYLOAD,2022-12-13 14:00:01,15.52463766,0.0001242,53.2176,274.2295,108.6222,151.1052,-0.020111,-0.01129626,0.0,0 STARLINK-5245,1 54168U 22141M   22347.58334491 -.01129626  00000-0 -20111-1 0  9994,2 54168  53.2176 274.2295 0001242 108.6222 151.1052 15.52463766  1305,6787.672,92.756,410.38,408.694,0.0
54168.0,STARLINK-5245,PAYLOAD,2022-12-13 22:00:00,15.51650725,0.000112,53.2177,272.6316,94.3562,228.8846,-0.020728,-0.01130369,0.0,0 STARLINK-5245,1 54168U 22141M   22347.91667824 -.01130369  00000-0 -20728-1 0  9990,2 54168  53.2177 272.6316 0001120  94.3562 228.8846 15.51650725  7407,6790.043000000002,92.804,412.669,411.148,0.0
54168.0,STARLINK-5245,PAYLOAD,2022-12-14 14:00:01,15.50011705,0.0001196,53.2173,269.4415,78.7097,8.6528,-0.0035095999999999,-0.00195621,0.0,0 STARLINK-5245,1 54168U 22141M   22348.58334491 -.00195621  00000-0 -35096-2 0  9991,2 54168  53.2173 269.4415 0001196  78.7097   8.6528 15.50011705  7509,6794.829000000002,92.903,417.507,415.881,0.0
54168.0,STARLINK-5245,PAYLOAD,2022-12-14 22:00:00,15.49884394,6.38e-05,53.2166,267.8495,98.2838,50.0776,-0.000602,-0.00034465,0.0,0 STARLINK-5245,1 54168U 22141M   22348.91667824 -.00034465  00000-0 -60200-3 0  9991,2 54168  53.2166 267.8495 0000638  98.2838  50.0776 15.49884394  1309,6795.201,92.91,417.499,416.632,0.0
54168.0,STARLINK-5245,PAYLOAD,2022-12-15 00:00:00,15.49816352,6.52e-05,53.2169,267.4513,90.4143,163.1956,0.0016838,0.0009606,0.0,0 STARLINK-5245,1 54168U 22141M   22349.00001157  .00096060  00000-0  16838-2 0  9997,2 54168  53.2169 267.4513 0000652  90.4143 163.1956 15.49816352  7567,6795.4,92.914,417.708,416.822,0.0
54168.0,STARLINK-5245,PAYLOAD,2022-12-15 14:00:01,15.49924587,0.0001002999999999,53.2137,264.6677,100.2094,170.0508,-0.00089741,-0.00051123,0.0,0 STARLINK-5245,1 54168U 22141M   22349.58334491 -.00051123  00000-0 -89741-3 0  9997,2 54168  53.2137 264.6677 0001003 100.2094 170.0508 15.49924587  1304,6795.083000000001,92.908,417.63,416.267,0.0
54168.0,STARLINK-5245,PAYLOAD,2022-12-15 22:00:00,15.49893737,8.87e-05,53.2145,263.0743,99.8655,231.3331,-0.00013193,-7.933e-05,0.0,0 STARLINK-5245,1 54168U 22141M   22349.91667824 -.00007933  00000-0 -13193-3 0  9991,2 54168  53.2145 263.0743 0000887  99.8655 231.3331 15.49893737  1302,6795.174,92.91,417.641,416.436,0.0
54168.0,STARLINK-5245,PAYLOAD,2022-12-16 02:00:01,15.49919213,9.57e-05,53.2151,262.2775,90.7329,90.9206,-0.0013012,-0.00073697,0.0,0 STARLINK-5245,1 54168U 22141M   22350.08334491 -.00073697  00000-0 -13012-2 0  9991,2 54168  53.2151 262.2775 0000957  90.7329  90.9206 15.49919213  7732,6795.099,92.908,417.614,416.314,0.0
54168.0,STARLINK-5245,PAYLOAD,2022-12-16 14:00:01,15.49784775,0.000118,53.2165,259.8837,92.7408,0.3017,-0.011661,-0.00610848,0.0,0 STARLINK-5245,1 54168U 22141M   22350.58334491 -.00610848  00000-0 -11661-1 0  9998,2 54168  53.2165 259.8837 0001180  92.7408   0.3017 15.49784775  7814,6795.4919999999975,92.916,418.159,416.555,0.0
54168.0,STARLINK-5245,PAYLOAD,2022-12-16 22:00:00,15.49412408,0.0001264999999999,53.2174,258.2899,87.9292,65.6499,-0.022385,-0.01127077,0.0,0 STARLINK-5245,1 54168U 22141M   22350.91667824 -.01127077  00000-0 -22385-1 0  9997,2 54168  53.2174 258.2899 0001265  87.9292  65.6499 15.49412408  7860,6796.581,92.938,419.306,417.586,0.0
54168.0,STARLINK-5245,PAYLOAD,2022-12-17 14:00:01,15.47782503,0.0001217,53.2174,255.1093,102.1509,170.2135,-0.023621,-0.01139733,0.0,0 STARLINK-5245,1 54168U 22141M   22351.58335648 -.01139733  00000-0 -23621-1 0  9993,2 54168  53.2174 255.1093 0001217 102.1509 170.2135 15.47782503  1307,6801.351,93.036,424.044,422.389,0.0
54168.0,STARLINK-5245,PAYLOAD,2022-12-17 22:00:00,15.46979262,0.0001079,53.2172,253.5235,102.4868,227.7004,-0.024637,-0.01154437,0.0,0 STARLINK-5245,1 54168U 22141M   22351.91667824 -.01154437  00000-0 -24637-1 0  9990,2 54168  53.2172 253.5235 0001079 102.4868 227.7004 15.46979262  1304,6803.706,93.085,426.305,424.836,0.0
